{
  "type": "FeatureCollection",
  "features": [
    {
      "type": "Feature",
      "properties": {
        "norad_id": 43823,
        "name": "GEO-KOMPSAT-2A",
        "group": "weather",
        "lat": -0.02918383336345725,
        "lon": -39.107199124810144,
        "alt_km": 35788.018576112016,
        "timestamp": "2025-12-18T07:01:54.229676+00:00",
        "meta_object_name": "GEO-KOMPSAT-2A",
        "meta_object_id": "2018-100A",
        "meta_epoch": "2025-12-16T07:07:06.206304",
        "meta_mean_motion": 1.00271835,
        "meta_eccentricity": 4.993e-05,
        "meta_inclination": 0.0508,
        "meta_ra_of_asc_node": 132.3973,
        "meta_arg_of_pericenter": 330.4458,
        "meta_mean_anomaly": 217.3998,
        "meta_ephemeris_type": 0,
        "meta_classification_type": "U",
        "meta_norad_cat_id": 43823,
        "meta_element_set_no": 999,
        "meta_rev_at_epoch": 2579,
        "meta_bstar": 0,
        "meta_mean_motion_dot": -3.2e-06,
        "meta_mean_motion_ddot": 0,
        "tle_line1": "1 43823U 18100A   25350.29659961 -.00000320  00000+0  00000+0 0  9996",
        "tle_line2": "2 43823   0.0508 132.3973 0000499 330.4458 217.3998  1.00271835 25791"
      },
      "geometry": {
        "type": "Point",
        "coordinates": [
          -39.107199124810144,
          -0.02918383336345725
        ]
      }
    },
    {
      "type": "Feature",
      "properties": {
        "norad_id": 44387,
        "name": "METEOR-M2 2",
        "group": "weather",
        "lat": 32.459649361064834,
        "lon": -33.62834705020401,
        "alt_km": 809.1366952580665,
        "timestamp": "2025-12-18T07:01:54.229687+00:00",
        "meta_object_name": "METEOR-M2 2",
        "meta_object_id": "2019-038A",
        "meta_epoch": "2025-12-17T22:26:51.891648",
        "meta_mean_motion": 14.24294091,
        "meta_eccentricity": 0.00014724,
        "meta_inclination": 98.8968,
        "meta_ra_of_asc_node": 331.7278,
        "meta_arg_of_pericenter": 137.8065,
        "meta_mean_anomaly": 222.3227,
        "meta_ephemeris_type": 0,
        "meta_classification_type": "U",
        "meta_norad_cat_id": 44387,
        "meta_element_set_no": 999,
        "meta_rev_at_epoch": 33549,
        "meta_bstar": 0.00011794441,
        "meta_mean_motion_dot": 2.27e-06,
        "meta_mean_motion_ddot": 0,
        "tle_line1": "1 44387U 19038A   25351.93532282  .00000227  00000+0  11794-3 0  9992",
        "tle_line2": "2 44387  98.8968 331.7278 0001472 137.8065 222.3227 14.24294091335491"
      },
      "geometry": {
        "type": "Point",
        "coordinates": [
          -33.62834705020401,
          32.459649361064834
        ]
      }
    },
    {
      "type": "Feature",
      "properties": {
        "norad_id": 47719,
        "name": "ARKTIKA-M 1",
        "group": "weather",
        "lat": 63.192771438392825,
        "lon": 173.7935032804385,
        "alt_km": 39259.358349277085,
        "timestamp": "2025-12-18T07:01:54.229701+00:00",
        "meta_object_name": "ARKTIKA-M 1",
        "meta_object_id": "2021-016A",
        "meta_epoch": "2025-12-16T01:33:46.454400",
        "meta_mean_motion": 2.00630649,
        "meta_eccentricity": 0.72056757,
        "meta_inclination": 63.179,
        "meta_ra_of_asc_node": 83.5626,
        "meta_arg_of_pericenter": 269.1378,
        "meta_mean_anomaly": 15.5886,
        "meta_ephemeris_type": 0,
        "meta_classification_type": "U",
        "meta_norad_cat_id": 47719,
        "meta_element_set_no": 999,
        "meta_rev_at_epoch": 3511,
        "meta_bstar": 0,
        "meta_mean_motion_dot": -1.08e-06,
        "meta_mean_motion_ddot": 0,
        "tle_line1": "1 47719U 21016A   25350.06512100 -.00000108  00000+0  00000+0 0  9996",
        "tle_line2": "2 47719  63.1790  83.5626 7205675 269.1378  15.5886  2.00630649 35117"
      },
      "geometry": {
        "type": "Point",
        "coordinates": [
          173.7935032804385,
          63.192771438392825
        ]
      }
    },
    {
      "type": "Feature",
      "properties": {
        "norad_id": 49008,
        "name": "FENGYUN 3E",
        "group": "weather",
        "lat": -79.48337280569679,
        "lon": 116.71291871293668,
        "alt_km": 832.7067801839084,
        "timestamp": "2025-12-18T07:01:54.229713+00:00",
        "meta_object_name": "FENGYUN 3E",
        "meta_object_id": "2021-062A",
        "meta_epoch": "2025-12-17T23:01:35.283360",
        "meta_mean_motion": 14.19880324,
        "meta_eccentricity": 6.402e-05,
        "meta_inclination": 98.7474,
        "meta_ra_of_asc_node": 352.4189,
        "meta_arg_of_pericenter": 229.0383,
        "meta_mean_anomaly": 131.0738,
        "meta_ephemeris_type": 0,
        "meta_classification_type": "U",
        "meta_norad_cat_id": 49008,
        "meta_element_set_no": 999,
        "meta_rev_at_epoch": 23086,
        "meta_bstar": -4.8747163e-05,
        "meta_mean_motion_dot": -1.47e-06,
        "meta_mean_motion_ddot": 0,
        "tle_line1": "1 49008U 21062A   25351.95943615 -.00000147  00000+0 -48747-4 0  9997",
        "tle_line2": "2 49008  98.7474 352.4189 0000640 229.0383 131.0738 14.19880324230863"
      },
      "geometry": {
        "type": "Point",
        "coordinates": [
          116.71291871293668,
          -79.48337280569679
        ]
      }
    },
    {
      "type": "Feature",
      "properties": {
        "norad_id": 51850,
        "name": "GOES 18",
        "group": "weather",
        "lat": -0.006138646450838559,
        "lon": 55.62938157279014,
        "alt_km": 35785.58803136122,
        "timestamp": "2025-12-18T07:01:54.229726+00:00",
        "meta_object_name": "GOES 18",
        "meta_object_id": "2022-021A",
        "meta_epoch": "2025-12-17T17:48:41.773824",
        "meta_mean_motion": 1.00272269,
        "meta_eccentricity": 4.609e-05,
        "meta_inclination": 0.0199,
        "meta_ra_of_asc_node": 176.1469,
        "meta_arg_of_pericenter": 158.7139,
        "meta_mean_anomaly": 241.9291,
        "meta_ephemeris_type": 0,
        "meta_classification_type": "U",
        "meta_norad_cat_id": 51850,
        "meta_element_set_no": 999,
        "meta_rev_at_epoch": 477,
        "meta_bstar": 0,
        "meta_mean_motion_dot": 1.22e-06,
        "meta_mean_motion_ddot": 0,
        "tle_line1": "1 51850U 22021A   25351.74215016  .00000122  00000+0  00000+0 0  9991",
        "tle_line2": "2 51850   0.0199 176.1469 0000460 158.7139 241.9291  1.00272269  4773"
      },
      "geometry": {
        "type": "Point",
        "coordinates": [
          55.62938157279014,
          -0.006138646450838559
        ]
      }
    },
    {
      "type": "Feature",
      "properties": {
        "norad_id": 54234,
        "name": "NOAA 21 (JPSS-2)",
        "group": "weather",
        "lat": -79.07687192426715,
        "lon": 55.61754464196684,
        "alt_km": 835.0705871987411,
        "timestamp": "2025-12-18T07:01:54.229756+00:00",
        "meta_object_name": "NOAA 21 (JPSS-2)",
        "meta_object_id": "2022-150A",
        "meta_epoch": "2025-12-17T19:38:40.048512",
        "meta_mean_motion": 14.19525664,
        "meta_eccentricity": 0.00020066,
        "meta_inclination": 98.7467,
        "meta_ra_of_asc_node": 288.0635,
        "meta_arg_of_pericenter": 28.0934,
        "meta_mean_anomaly": 332.035,
        "meta_ephemeris_type": 0,
        "meta_classification_type": "U",
        "meta_norad_cat_id": 54234,
        "meta_element_set_no": 999,
        "meta_rev_at_epoch": 16081,
        "meta_bstar": 4.2797059e-05,
        "meta_mean_motion_dot": 4.6e-07,
        "meta_mean_motion_ddot": 0,
        "tle_line1": "1 54234U 22150A   25351.81851908  .00000046  00000+0  42797-4 0  9996",
        "tle_line2": "2 54234  98.7467 288.0635 0002006  28.0934 332.0350 14.19525664160812"
      },
      "geometry": {
        "type": "Point",
        "coordinates": [
          55.61754464196684,
          -79.07687192426715
        ]
      }
    },
    {
      "type": "Feature",
      "properties": {
        "norad_id": 54743,
        "name": "METEOSAT-12 (MTG-I1)",
        "group": "weather",
        "lat": 0.1340918616015227,
        "lon": -167.68985502156875,
        "alt_km": 35784.47045832804,
        "timestamp": "2025-12-18T07:01:54.229782+00:00",
        "meta_object_name": "METEOSAT-12 (MTG-I1)",
        "meta_object_id": "2022-170C",
        "meta_epoch": "2025-12-17T18:27:38.045376",
        "meta_mean_motion": 1.00270194,
        "meta_eccentricity": 0.00015074,
        "meta_inclination": 0.6921,
        "meta_ra_of_asc_node": 24.4378,
        "meta_arg_of_pericenter": 239.4583,
        "meta_mean_anomaly": 99.3598,
        "meta_ephemeris_type": 0,
        "meta_classification_type": "U",
        "meta_norad_cat_id": 54743,
        "meta_element_set_no": 999,
        "meta_rev_at_epoch": 1115,
        "meta_bstar": 0,
        "meta_mean_motion_dot": 1.7e-07,
        "meta_mean_motion_ddot": 0,
        "tle_line1": "1 54743U 22170C   25351.76919034  .00000017  00000+0  00000+0 0  9996",
        "tle_line2": "2 54743   0.6921  24.4378 0001507 239.4583  99.3598  1.00270194 11153"
      },
      "geometry": {
        "type": "Point",
        "coordinates": [
          -167.68985502156875,
          0.1340918616015227
        ]
      }
    }
  ]
}